{"type": "FeatureCollection", "features": [ {"type": "Feature", "properties": {"norad_id": 39781, "name": "IRIDIUM 33 DEB", "group": "iridium-33-debris", "lat": 4.440764070731663, "lon": 71.63886343292695, "alt_km": 744.2148534269263, "timestamp": "2025-12-27T10:28:59.180047+00:00", "meta": {"OBJECT_NAME": "IRIDIUM 33 DEB", "OBJECT_ID": "1997-051AAN", "EPOCH": "2025-12-26T00:09:41.273280", "MEAN_MOTION": 14.20964815, "ECCENTRICITY": 0.01723668, "INCLINATION": 86.3698, "RA_OF_ASC_NODE": 252.511, "ARG_OF_PERICENTER": 230.4954, "MEAN_ANOMALY": 195.4493, "EPHEMERIS_TYPE": 0, "CLASSIFICATION_TYPE": "U", "NORAD_CAT_ID": 39781, "ELEMENT_SET_NO": 999, "REV_AT_EPOCH": 8295, "BSTAR": 0.0048537069, "MEAN_MOTION_DOT": 0.00012243, "MEAN_MOTION_DDOT": 0}, "tle": {"line1": "1 39781U 97051AAN 25360.00672770  .00012243  00000+0  48537-2 0  9995", "line2": "2 39781  86.3698 252.5110 0172366 230.4954 195.4493 14.20964815 82957"}}, "geometry": {"type": "Point", "coordinates": [71.63886343292695, 4.440764070731663]}}, {"type": "Feature", "properties": {"norad_id": 40996, "name": "IRIDIUM 33 DEB", "group": "iridium-33-debris", "lat": 34.81146907389185, "lon": -2.919515604174182, "alt_km": 566.3765248728623, "timestamp": "2025-12-27T10:28:59.180057+00:00", "meta": {"OBJECT_NAME": "IRIDIUM 33 DEB", "OBJECT_ID": "1997-051ABJ", "EPOCH": "2025-12-25T10:52:55.970112", "MEAN_MOTION": 14.97048042, "ECCENTRICITY": 0.0010436, "INCLINATION": 86.3519, "RA_OF_ASC_NODE": 355.4655, "ARG_OF_PERICENTER": 27.9702, "MEAN_ANOMALY": 124.5027, "EPHEMERIS_TYPE": 0, "CLASSIFICATION_TYPE": "U", "NORAD_CAT_ID": 40996, "ELEMENT_SET_NO": 999, "REV_AT_EPOCH": 62678, "BSTAR": 0.0031302, "MEAN_MOTION_DOT": 0.00036257, "MEAN_MOTION_DDOT": 0}, "tle": {"line1": "1 40996U 97051ABJ 25359.45342558  .00036257  00000+0  31302-2 0  9993", "line2": "2 40996  86.3519 355.4655 0010436  27.9702 124.5027 14.97048042626785"}}, "geometry": {"type": "Point", "coordinates": [-2.919515604174182, 34.81146907389185]}}, {"type": "Feature", "properties": {"norad_id": 40998, "name": "IRIDIUM 33 DEB", "group": "iridium-33-debris", "lat": -74.98941285830558, "lon": 33.72548553755093, "alt_km": 751.9413026233842, "timestamp": "2025-12-27T10:28:59.180067+00:00", "meta": {"OBJECT_NAME": "IRIDIUM 33 DEB", "OBJECT_ID": "1997-051ABL", "EPOCH": "2025-12-26T10:09:43.353216", "MEAN_MOTION": 14.4513968, "ECCENTRICITY": 0.0008602, "INCLINATION": 86.3812, "RA_OF_ASC_NODE": 47.8096, "ARG_OF_PERICENTER": 47.0142, "MEAN_ANOMALY": 8.9419, "EPHEMERIS_TYPE": 0, "CLASSIFICATION_TYPE": "U", "NORAD_CAT_ID": 40998, "ELEMENT_SET_NO": 999, "REV_AT_EPOCH": 6879, "BSTAR": 0.00044303, "MEAN_MOTION_DOT": 1.57e-05, "MEAN_MOTION_DDOT": 0}, "tle": {"line1": "1 40998U 97051ABL 25360.42341844  .00001570  00000+0  44303-3 0  9997", "line2": "2 40998  86.3812  47.8096 0008602  47.0142   8.9419 14.45139680 68790"}}, "geometry": {"type": "Point", "coordinates": [33.72548553755093, -74.98941285830558]}}, {"type": "Feature", "properties": {"norad_id": 46435, "name": "IRIDIUM 33 DEB", "group": "iridium-33-debris", "lat": -36.516047744788246, "lon": 10.382727476316717, "alt_km": 643.4863694798569, "timestamp": "2025-12-27T10:28:59.180078+00:00", "meta": {"OBJECT_NAME": "IRIDIUM 33 DEB", "OBJECT_ID": "1997-051ABN", "EPOCH": "2025-12-26T18:27:22.554720", "MEAN_MOTION": 14.3315669, "ECCENTRICITY": 0.02053392, "INCLINATION": 86.2831, "RA_OF_ASC_NODE": 187.9117, "ARG_OF_PERICENTER": 230.5331, "MEAN_ANOMALY": 143.214, "EPHEMERIS_TYPE": 0, "CLASSIFICATION_TYPE": "U", "NORAD_CAT_ID": 46435, "ELEMENT_SET_NO": 999, "REV_AT_EPOCH": 8117, "BSTAR": 0.010810163, "MEAN_MOTION_DOT": 0.00037708, "MEAN_MOTION_DDOT": 0}, "tle": {"line1": "1 46435U 97051ABN 25360.76901105  .00037708  00000+0  10810-1 0  9994", "line2": "2 46435  86.2831 187.9117 0205339 230.5331 143.2140 14.33156690 81175"}}, "geometry": {"type": "Point", "coordinates": [10.382727476316717, -36.516047744788246]}}, {"type": "Feature", "properties": {"norad_id": 46734, "name": "IRIDIUM 33 DEB", "group": "iridium-33-debris", "lat": 5.005710690689349, "lon": 176.0824254900448, "alt_km": 763.5773094355754, "timestamp": "2025-12-27T10:28:59.180088+00:00", "meta": {"OBJECT_NAME": "IRIDIUM 33 DEB", "OBJECT_ID": "1997-051ABR", "EPOCH": "2025-12-26T17:50:24.765216", "MEAN_MOTION": 14.41977609, "ECCENTRICITY": 0.00372857, "INCLINATION": 86.2643, "RA_OF_ASC_NODE": 356.7146, "ARG_OF_PERICENTER": 287.6839, "MEAN_ANOMALY": 250.0617, "EPHEMERIS_TYPE": 0, "CLASSIFICATION_TYPE": "U", "NORAD_CAT_ID": 46734, "ELEMENT_SET_NO": 999, "REV_AT_EPOCH": 63212, "BSTAR": 0.0011195467, "MEAN_MOTION_DOT": 3.719e-05, "MEAN_MOTION_DDOT": 0}, "tle": {"line1": "1 46734U 97051ABR 25360.74334219  .00003719  00000+0  11195-2 0  9993", "line2": "2 46734  86.2643 356.7146 0037285 287.6839 250.0617 14.41977609632128"}}, "geometry": {"type": "Point", "coordinates": [176.0824254900448, 5.005710690689349]}}, {"type": "Feature", "properties": {"norad_id": 46965, "name": "IRIDIUM 33 DEB", "group": "iridium-33-debris", "lat": -25.465407607768913, "lon": 155.92736572771247, "alt_km": 694.5179150380573, "timestamp": "2025-12-27T10:28:59.180098+00:00", "meta": {"OBJECT_NAME": "IRIDIUM 33 DEB", "OBJECT_ID": "1997-051ABX", "EPOCH": "2025-12-23T05:18:49.392864", "MEAN_MOTION": 14.60370511, "ECCENTRICITY": 0.00170224, "INCLINATION": 86.3362, "RA_OF_ASC_NODE": 336.0473, "ARG_OF_PERICENTER": 295.0187, "MEAN_ANOMALY": 82.9345, "EPHEMERIS_TYPE": 0, "CLASSIFICATION_TYPE": "U", "NORAD_CAT_ID": 46965, "ELEMENT_SET_NO": 999, "REV_AT_EPOCH": 62421, "BSTAR": 0.00084803208, "MEAN_MOTION_DOT": 4.13e-05, "MEAN_MOTION_DDOT": 0}, "tle": {"line1": "1 46965U 97051ABX 25357.22140501  .00004130  00000+0  84803-3 0  9992", "line2": "2 46965  86.3362 336.0473 0017022 295.0187  82.9345 14.60370511624214"}}, "geometry": {"type": "Point", "coordinates": [155.92736572771247, -25.465407607768913]}}, {"type": "Feature", "properties": {"norad_id": 46971, "name": "IRIDIUM 33 DEB", "group": "iridium-33-debris", "lat": 41.663476985939546, "lon": 142.93510616031372, "alt_km": 567.9141008408969, "timestamp": "2025-12-27T10:28:59.180108+00:00", "meta": {"OBJECT_NAME": "IRIDIUM 33 DEB", "OBJECT_ID": "1997-051ACD", "EPOCH": "2025-12-18T04:46:20.926848", "MEAN_MOTION": 14.98336604, "ECCENTRICITY": 0.00026432, "INCLINATION": 86.3383, "RA_OF_ASC_NODE": 330.5483, "ARG_OF_PERICENTER": 282.6501, "MEAN_ANOMALY": 90.914, "EPHEMERIS_TYPE": 0, "CLASSIFICATION_TYPE": "U", "NORAD_CAT_ID": 46971, "ELEMENT_SET_NO": 999, "REV_AT_EPOCH": 64312, "BSTAR": 0.0022892837, "MEAN_MOTION_DOT": 0.00027356, "MEAN_MOTION_DDOT": 0}, "tle": {"line1": "1 46971U 97051ACD 25352.19885332  .00027356  00000+0  22893-2 0  9993", "line2": "2 46971  86.3383 330.5483 0002643 282.6501  90.9140 14.98336604643128"}}, "geometry": {"type": "Point", "coordinates": [142.93510616031372, 41.663476985939546]}}, {"type": "Feature", "properties": {"norad_id": 46972, "name": "IRIDIUM 33 DEB", "group": "iridium-33-debris", "lat": -65.75262403102495, "lon": 25.01011389495085, "alt_km": 735.8601750941225, "timestamp": "2025-12-27T10:28:59.180118+00:00", "meta": {"OBJECT_NAME": "IRIDIUM 33 DEB", "OBJECT_ID": "1997-051ACE", "EPOCH": "2025-12-24T20:41:33.679968", "MEAN_MOTION": 14.50725222, "ECCENTRICITY": 0.00114655, "INCLINATION": 86.386, "RA_OF_ASC_NODE": 34.1849, "ARG_OF_PERICENTER": 73.1922, "MEAN_ANOMALY": 103.3991, "EPHEMERIS_TYPE": 0, "CLASSIFICATION_TYPE": "U", "NORAD_CAT_ID": 46972, "ELEMENT_SET_NO": 999, "REV_AT_EPOCH": 61748, "BSTAR": 0.00047832722, "MEAN_MOTION_DOT": 1.902e-05, "MEAN_MOTION_DDOT": 0}, "tle": {"line1": "1 46972U 97051ACE 25358.86219537  .00001902  00000+0  47833-3 0  9993", "line2": "2 46972  86.3860  34.1849 0011465  73.1922 103.3991 14.50725222617483"}}, "geometry": {"type": "Point", "coordinates": [25.01011389495085, -65.75262403102495]}}, {"type": "Feature", "properties": {"norad_id": 46974, "name": "IRIDIUM 33 DEB", "group": "iridium-33-debris", "lat": 12.123531206358358, "lon": -81.93904291452942, "alt_km": 684.3376037709331, "timestamp": "2025-12-27T10:28:59.180128+00:00", "meta": {"OBJECT_NAME": "IRIDIUM 33 DEB", "OBJECT_ID": "1997-051ACG", "EPOCH": "2025-12-26T23:44:28.817088", "MEAN_MOTION": 14.44752736, "ECCENTRICITY": 0.0095209, "INCLINATION": 86.2979, "RA_OF_ASC_NODE": 99.0534, "ARG_OF_PERICENTER": 140.8624, "MEAN_ANOMALY": 219.9515, "EPHEMERIS_TYPE": 0, "CLASSIFICATION_TYPE": "U", "NORAD_CAT_ID": 46974, "ELEMENT_SET_NO": 999, "REV_AT_EPOCH": 57714, "BSTAR": 0.0042245, "MEAN_MOTION_DOT": 0.00015541, "MEAN_MOTION_DDOT": 0}, "tle": {"line1": "1 46974U 97051ACG 25360.98922242  .00015541  00000+0  42245-2 0  9990", "line2": "2 46974  86.2979  99.0534 0095209 140.8624 219.9515 14.44752736577142"}}, "geometry": {"type": "Point", "coordinates": [-81.93904291452942, 12.123531206358358]}}, {"type": "Feature", "properties": {"norad_id": 46979, "name": "IRIDIUM 33 DEB", "group": "iridium-33-debris", "lat": 57.58124235833541, "lon": 47.51403068636284, "alt_km": 598.2910138638672, "timestamp": "2025-12-27T10:28:59.180140+00:00", "meta": {"OBJECT_NAME": "IRIDIUM 33 DEB", "OBJECT_ID": "1997-051ACM", "EPOCH": "2025-12-24T20:59:38.183136", "MEAN_MOTION": 14.90364123, "ECCENTRICITY": 0.002819, "INCLINATION": 86.3328, "RA_OF_ASC_NODE": 42.91, "ARG_OF_PERICENTER": 179.7106, "MEAN_ANOMALY": 180.4142, "EPHEMERIS_TYPE": 0, "CLASSIFICATION_TYPE": "U", "NORAD_CAT_ID": 46979, "ELEMENT_SET_NO": 999, "REV_AT_EPOCH": 35609, "BSTAR": 0.0040991, "MEAN_MOTION_DOT": 0.00040379, "MEAN_MOTION_DDOT": 0}, "tle": {"line1": "1 46979U 97051ACM 25358.87474749  .00040379  00000+0  40991-2 0  9997", "line2": "2 46979  86.3328  42.9100 0028190 179.7106 180.4142 14.90364123356090"}}, "geometry": {"type": "Point", "coordinates": [47.51403068636284, 57.58124235833541]}}]}